start=new Date('2023-06-29T00:00:00.000Z').valueOf();
sats=[{"EPOCH":"2023-06-27T10:16:25.910688","COUNTRY_CODE":"US","INCLINATION":"53.2159","MEAN_MOTION_DOT":"0.00000249","OBJECT_NAME":"STARLINK-4480","CLASSIFICATION_TYPE":"U","OBJECT_TYPE":"PAYLOAD","SEMIMAJOR_AXIS":"6917.887","PERIOD":"95.438","OBJECT_ID":"2022-097AE","MEAN_MOTION_DDOT":"0.0000000000000","MEAN_ANOMALY":"268.3708","GP_ID":"234587528","SITE":"AFETR","DECAY_DATE":null,"REF_FRAME":"TEME","MEAN_ELEMENT_THEORY":"SGP4","RA_OF_ASC_NODE":"221.5706","APOAPSIS":"540.522","ARG_OF_PERICENTER":"91.7411","TLE_LINE1":"1 53416U 22097AE  23178.42807767  .00000249  00000-0  33757-4 0  9995","CENTER_NAME":"EARTH","REV_AT_EPOCH":"4927","LAUNCH_DATE":"2022-08-10","ELEMENT_SET_NO":"999","TLE_LINE2":"2 53416  53.2159 221.5706 0001113  91.7411 268.3708 15.08837858 49277","ECCENTRICITY":"0.00011130","TIME_SYSTEM":"UTC","EPHEMERIS_TYPE":"0","NORAD_CAT_ID":"53416","BSTAR":"0.00003375700000","MEAN_MOTION":"15.08837858","PERIAPSIS":"538.982","FILE":"3944223","RCS_SIZE":"LARGE"},{"TLE_LINE2":"2 53417  53.2156 218.5992 0000986  87.9064 272.2041 15.08837176 49374","ECCENTRICITY":"0.00009860","ELEMENT_SET_NO":"999","LAUNCH_DATE":"2022-08-10","REV_AT_EPOCH":"4937","CENTER_NAME":"EARTH","TLE_LINE1":"1 53417U 22097AF  23179.10152174  .00001095  00000-0  86869-4 0  9999","ARG_OF_PERICENTER":"87.9064","APOAPSIS":"540.436","FILE":"3944797","RCS_SIZE":"LARGE","PERIAPSIS":"539.072","MEAN_MOTION":"15.08837176","BSTAR":"0.00008686900000","NORAD_CAT_ID":"53417","TIME_SYSTEM":"UTC","EPHEMERIS_TYPE":"0","SEMIMAJOR_AXIS":"6917.889","PERIOD":"95.438","OBJECT_TYPE":"PAYLOAD","CLASSIFICATION_TYPE":"U","MEAN_MOTION_DOT":"0.00001095","OBJECT_NAME":"STARLINK-4484","INCLINATION":"53.2156","COUNTRY_CODE":"US","EPOCH":"2023-06-28T02:26:11.478336","RA_OF_ASC_NODE":"218.5992","MEAN_ELEMENT_THEORY":"SGP4","REF_FRAME":"TEME","DECAY_DATE":null,"SITE":"AFETR","GP_ID":"234601710","MEAN_ANOMALY":"272.2041","OBJECT_ID":"2022-097AF","MEAN_MOTION_DDOT":"0.0000000000000"},{"CENTER_NAME":"EARTH","APOAPSIS":"540.423","TLE_LINE1":"1 53418U 22097AG  23178.39950760 -.00000940  00000-0 -40987-4 0  9998","ARG_OF_PERICENTER":"96.9415","TLE_LINE2":"2 53418  53.2156 211.3130 0000990  96.9415 263.1690 15.08842260 49419","ECCENTRICITY":"0.00009900","ELEMENT_SET_NO":"999","LAUNCH_DATE":"2022-08-10","REV_AT_EPOCH":"4941","MEAN_MOTION":"15.08842260","BSTAR":"-0.00004098700000","NORAD_CAT_ID":"53418","EPHEMERIS_TYPE":"0","TIME_SYSTEM":"UTC","FILE":"3944223","RCS_SIZE":"LARGE","PERIAPSIS":"539.054","MEAN_MOTION_DOT":"-0.00000940","INCLINATION":"53.2156","OBJECT_NAME":"STARLINK-4481","COUNTRY_CODE":"US","EPOCH":"2023-06-27T09:35:17.456640","OBJECT_TYPE":"PAYLOAD","PERIOD":"95.437","SEMIMAJOR_AXIS":"6917.873","CLASSIFICATION_TYPE":"U","GP_ID":"234587532","SITE":"AFETR","OBJECT_ID":"2022-097AG","MEAN_MOTION_DDOT":"0.0000000000000","MEAN_ANOMALY":"263.1690","MEAN_ELEMENT_THEORY":"SGP4","RA_OF_ASC_NODE":"211.3130","REF_FRAME":"TEME","DECAY_DATE":null},{"CENTER_NAME":"EARTH","TLE_LINE1":"1 53419U 22097AH  23179.62776056  .00003473  00000-0  23613-3 0  9998","ARG_OF_PERICENTER":"84.1839","APOAPSIS":"540.411","ELEMENT_SET_NO":"999","LAUNCH_DATE":"2022-08-10","REV_AT_EPOCH":"4945","TLE_LINE2":"2 53419  53.2144 216.2320 0000986  84.1839 275.9265 15.08845404 49452","ECCENTRICITY":"0.00009860","NORAD_CAT_ID":"53419","EPHEMERIS_TYPE":"0","TIME_SYSTEM":"UTC","MEAN_MOTION":"15.08845404","BSTAR":"0.00023613000000","PERIAPSIS":"539.047","RCS_SIZE":"LARGE","FILE":"3945246","COUNTRY_CODE":"US","EPOCH":"2023-06-28T15:03:58.512384","INCLINATION":"53.2144","MEAN_MOTION_DOT":"0.00003473","OBJECT_NAME":"STARLINK-4476","CLASSIFICATION_TYPE":"U","SEMIMAJOR_AXIS":"6917.864","PERIOD":"95.437","OBJECT_TYPE":"PAYLOAD","SITE":"AFETR","GP_ID":"234612464","MEAN_ANOMALY":"275.9265","OBJECT_ID":"2022-097AH","MEAN_MOTION_DDOT":"0.0000000000000","DECAY_DATE":null,"RA_OF_ASC_NODE":"216.2320","MEAN_ELEMENT_THEORY":"SGP4","REF_FRAME":"TEME"},{"SITE":"AFETR","GP_ID":"234612465","MEAN_ANOMALY":"268.4956","OBJECT_ID":"2022-097AJ","MEAN_MOTION_DDOT":"0.0000000000000","DECAY_DATE":null,"RA_OF_ASC_NODE":"216.8792","MEAN_ELEMENT_THEORY":"SGP4","REF_FRAME":"TEME","COUNTRY_CODE":"US","EPOCH":"2023-06-28T11:37:18.626304","OBJECT_NAME":"STARLINK-4552","MEAN_MOTION_DOT":"0.00001334","INCLINATION":"53.2161","CLASSIFICATION_TYPE":"U","SEMIMAJOR_AXIS":"6917.882","PERIOD":"95.438","OBJECT_TYPE":"PAYLOAD","NORAD_CAT_ID":"53420","EPHEMERIS_TYPE":"0","TIME_SYSTEM":"UTC","MEAN_MOTION":"15.08839428","BSTAR":"0.00010190000000","PERIAPSIS":"539.020","RCS_SIZE":"LARGE","FILE":"3945246","CENTER_NAME":"EARTH","ARG_OF_PERICENTER":"91.6157","TLE_LINE1":"1 53420U 22097AJ  23179.48424336  .00001334  00000-0  10190-3 0  9995","APOAPSIS":"540.474","ELEMENT_SET_NO":"999","LAUNCH_DATE":"2022-08-10","REV_AT_EPOCH":"4943","TLE_LINE2":"2 53420  53.2161 216.8792 0001051  91.6157 268.4956 15.08839428 49433","ECCENTRICITY":"0.00010510"},{"PERIAPSIS":"539.004","RCS_SIZE":"LARGE","FILE":"3945246","TIME_SYSTEM":"UTC","EPHEMERIS_TYPE":"0","NORAD_CAT_ID":"53421","BSTAR":"0.00019466000000","MEAN_MOTION":"15.08846095","REV_AT_EPOCH":"4945","LAUNCH_DATE":"2022-08-10","ELEMENT_SET_NO":"999","TLE_LINE2":"2 53421  53.2147 216.2492 0001045  86.6227 273.4885 15.08846095 49451","ECCENTRICITY":"0.00010450","ARG_OF_PERICENTER":"86.6227","TLE_LINE1":"1 53421U 22097AK  23179.62407966  .00002812  00000-0  19466-3 0  9999","APOAPSIS":"540.450","CENTER_NAME":"EARTH","DECAY_DATE":null,"REF_FRAME":"TEME","RA_OF_ASC_NODE":"216.2492","MEAN_ELEMENT_THEORY":"SGP4","MEAN_ANOMALY":"273.4885","MEAN_MOTION_DDOT":"0.0000000000000","OBJECT_ID":"2022-097AK","SITE":"AFETR","GP_ID":"234612739","CLASSIFICATION_TYPE":"U","SEMIMAJOR_AXIS":"6917.862","PERIOD":"95.437","OBJECT_TYPE":"PAYLOAD","EPOCH":"2023-06-28T14:58:40.482624","COUNTRY_CODE":"US","OBJECT_NAME":"STARLINK-4545","MEAN_MOTION_DOT":"0.00002812","INCLINATION":"53.2147"},{"COUNTRY_CODE":"US","EPOCH":"2023-06-27T19:32:51.188640","MEAN_MOTION_DOT":"-0.00000569","OBJECT_NAME":"STARLINK-4546","INCLINATION":"53.2161","CLASSIFICATION_TYPE":"U","SEMIMAJOR_AXIS":"6917.880","PERIOD":"95.438","OBJECT_TYPE":"PAYLOAD","SITE":"AFETR","GP_ID":"234595930","MEAN_ANOMALY":"276.3489","OBJECT_ID":"2022-097AL","MEAN_MOTION_DDOT":"0.0000000000000","DECAY_DATE":null,"RA_OF_ASC_NODE":"219.8864","MEAN_ELEMENT_THEORY":"SGP4","REF_FRAME":"TEME","CENTER_NAME":"EARTH","TLE_LINE1":"1 53422U 22097AL  23178.81448135 -.00000569  00000-0 -17690-4 0  9990","ARG_OF_PERICENTER":"83.7614","APOAPSIS":"540.414","LAUNCH_DATE":"2022-08-10","ELEMENT_SET_NO":"999","REV_AT_EPOCH":"4933","TLE_LINE2":"2 53422  53.2161 219.8864 0000968  83.7614 276.3489 15.08840277 49336","ECCENTRICITY":"0.00009680","NORAD_CAT_ID":"53422","EPHEMERIS_TYPE":"0","TIME_SYSTEM":"UTC","MEAN_MOTION":"15.08840277","BSTAR":"-0.00001769000000","PERIAPSIS":"539.075","FILE":"3944552","RCS_SIZE":"LARGE"},{"LAUNCH_DATE":"2022-08-10","ELEMENT_SET_NO":"999","REV_AT_EPOCH":"4942","ECCENTRICITY":"0.00015040","TLE_LINE2":"2 53423  53.2149 217.1642 0001504  81.5944 278.5218 15.08777836 49421","CENTER_NAME":"EARTH","ARG_OF_PERICENTER":"81.5944","TLE_LINE1":"1 53423U 22097AM  23179.42268538  .00034212  00000-0  21609-2 0  9999","APOAPSIS":"540.976","PERIAPSIS":"538.895","RCS_SIZE":"LARGE","FILE":"3945022","NORAD_CAT_ID":"53423","EPHEMERIS_TYPE":"0","TIME_SYSTEM":"UTC","MEAN_MOTION":"15.08777836","BSTAR":"0.00216090000000","CLASSIFICATION_TYPE":"U","SEMIMAJOR_AXIS":"6918.070","PERIOD":"95.441","OBJECT_TYPE":"PAYLOAD","COUNTRY_CODE":"US","EPOCH":"2023-06-28T10:08:40.016832","MEAN_MOTION_DOT":"0.00034212","OBJECT_NAME":"STARLINK-4539","INCLINATION":"53.2149","DECAY_DATE":null,"RA_OF_ASC_NODE":"217.1642","MEAN_ELEMENT_THEORY":"SGP4","REF_FRAME":"TEME","SITE":"AFETR","GP_ID":"234607509","MEAN_ANOMALY":"278.5218","MEAN_MOTION_DDOT":"0.0000000000000","OBJECT_ID":"2022-097AM"},{"CENTER_NAME":"EARTH","APOAPSIS":"540.413","ARG_OF_PERICENTER":"72.1352","TLE_LINE1":"1 53424U 22097AN  23179.13832388  .00000797  00000-0  68141-4 0  9993","ELEMENT_SET_NO":"999","LAUNCH_DATE":"2022-08-10","REV_AT_EPOCH":"4938","TLE_LINE2":"2 53424  53.2151 218.4335 0000938  72.1352 287.9742 15.08833778 49386","ECCENTRICITY":"0.00009380","NORAD_CAT_ID":"53424","TIME_SYSTEM":"UTC","EPHEMERIS_TYPE":"0","MEAN_MOTION":"15.08833778","BSTAR":"0.00006814100000","PERIAPSIS":"539.116","FILE":"3944613","RCS_SIZE":"LARGE","COUNTRY_CODE":"US","EPOCH":"2023-06-28T03:19:11.183232","MEAN_MOTION_DOT":"0.00000797","INCLINATION":"53.2151","OBJECT_NAME":"STARLINK-4532","CLASSIFICATION_TYPE":"U","OBJECT_TYPE":"PAYLOAD","PERIOD":"95.438","SEMIMAJOR_AXIS":"6917.899","GP_ID":"234597340","SITE":"AFETR","MEAN_MOTION_DDOT":"0.0000000000000","OBJECT_ID":"2022-097AN","MEAN_ANOMALY":"287.9742","DECAY_DATE":null,"MEAN_ELEMENT_THEORY":"SGP4","RA_OF_ASC_NODE":"218.4335","REF_FRAME":"TEME"},{"REF_FRAME":"TEME","RA_OF_ASC_NODE":"221.6544","MEAN_ELEMENT_THEORY":"SGP4","DECAY_DATE":null,"MEAN_ANOMALY":"278.7140","OBJECT_ID":"2022-097AP","MEAN_MOTION_DDOT":"0.0000000000000","SITE":"AFETR","GP_ID":"234587878","PERIOD":"95.438","SEMIMAJOR_AXIS":"6917.895","OBJECT_TYPE":"PAYLOAD","CLASSIFICATION_TYPE":"U","MEAN_MOTION_DOT":"0.00000538","INCLINATION":"53.2158","OBJECT_NAME":"STARLINK-4531","EPOCH":"2023-06-27T10:05:50.533728","COUNTRY_CODE":"US","RCS_SIZE":"LARGE","FILE":"3944248","PERIAPSIS":"538.921","BSTAR":"0.00005188200000","MEAN_MOTION":"15.08835127","TIME_SYSTEM":"UTC","EPHEMERIS_TYPE":"0","NORAD_CAT_ID":"53425","TLE_LINE2":"2 53425  53.2158 221.6544 0001213  81.3989 278.7140 15.08835127 49275","ECCENTRICITY":"0.00012130","REV_AT_EPOCH":"4927","LAUNCH_DATE":"2022-08-10","ELEMENT_SET_NO":"999","ARG_OF_PERICENTER":"81.3989","TLE_LINE1":"1 53425U 22097AP  23178.42072377  .00000538  00000-0  51882-4 0  9996","APOAPSIS":"540.599","CENTER_NAME":"EARTH"}];
